STARLINK-2022           
1 47643U 21012Z   24182.59349342  .00004391  00000+0  31359-3 0  9996
2 47643  53.0543 301.8685 0001269  92.3838 267.7296 15.06384980187254
